SKYSAT-A                
1 39418U 13066C   26115.60693707  .00003121  00000+0  18101-3 0  9994
2 39418  97.3867 166.6784 0022904 133.5960 226.7178 15.12661764680533
SKYSAT-B                
1 40072U 14037D   26115.87422303  .00001442  00000+0  16426-3 0  9994
2 40072  98.3799  71.8768 0007029  88.0192 272.1827 14.87885069638184
SKYSAT-C1               
1 41601U 16040C   26115.63736575  .00008812  00000+0  25838-3 0  9997
2 41601  96.9619 150.2268 0002409 165.6923 194.4390 15.35396532549803
SKYSAT-C4               
1 41771U 16058B   26115.96348644  .00018142  00000+0  36125-3 0  9994
2 41771  96.9226 139.9736 0003526  95.8992 264.2661 15.46949293537398
SKYSAT-C5               
1 41772U 16058C   26115.66035379  .00007727  00000+0  23934-3 0  9991
2 41772  97.0528 158.6595 0004948 112.6688 247.5079 15.33695202535698
SKYSAT-C2               
1 41773U 16058D   26115.54721156  .00011371  00000+0  27884-3 0  9992
2 41773  97.0221 139.6598 0001976 200.0816 160.0354 15.40864270536949
SKYSAT-C3               
1 41774U 16058E   26115.64006891  .00021037  00000+0  37195-3 0  9992
2 41774  96.9099 148.5690 0002735 103.9986 256.1571 15.50341233537967
SKYSAT-C11              
1 42987U 17068A   26115.85492080  .00029740  00000+0  44135-3 0  9994
2 42987  97.4284 262.5396 0001515 141.8945 218.2416 15.55171984475100
SKYSAT-C10              
1 42988U 17068B   26115.85223961  .00011469  00000+0  35425-3 0  9996
2 42988  97.4423 252.2510 0001625 110.6604 249.4813 15.33701216474332
SKYSAT-C9               
1 42989U 17068C   26115.89775572  .00014398  00000+0  35937-3 0  9993
2 42989  97.4345 252.7472 0007619 331.9356  28.1478 15.40259219474708
SKYSAT-C8               
1 42990U 17068D   26115.83576131  .00012650  00000+0  36407-3 0  9991
2 42990  97.4439 251.8397 0001170 111.5117 248.6252 15.35910651474272
SKYSAT-C7               
1 42991U 17068E   26115.89254753  .00012376  00000+0  35679-3 0  9996
2 42991  97.4452 252.8833 0004702 297.8894  62.1873 15.35853996474342
SKYSAT-C6               
1 42992U 17068F   26115.89389335  .00011190  00000+0  34769-3 0  9994
2 42992  97.4485 253.0266 0001840   4.0652 356.0605 15.33518427474301
SKYSAT-C12              
1 43797U 18099AR  26115.80009606  .00017189  00000+0  33927-3 0  9993
2 43797  96.9313 141.1989 0003595  18.4793 341.6588 15.47216514413751
SKYSAT-C13              
1 43802U 18099AW  26115.66912367  .00141420  00000+0  53555-3 0  9996
2 43802  96.9273 163.7191 0003288  96.3708 263.7939 15.87299192414592
FLOCK 4Q-16             
1 58271U 23174R   26115.94065769  .00026499  00000+0  52530-3 0  9998
2 58271  97.3825 202.9336 0005295   3.3656 356.7628 15.47007054137492
